{
  "norad_id": 58518,
  "name": "STARLINK-31021",
  "history": [
    {
      "epoch": "2026-03-28T00:41:29.203872Z",
      "apogee_km": 486.694947798298,
      "perigee_km": 484.33810645015546,
      "latitude_deg": -4.4608784516348705e-05,
      "longitude_deg": 164.22223738906004,
      "height_km": 485.3152265122102,
      "semi_major_axis_km": 6863.6535271242265,
      "eccentricity": 0.00017169,
      "inclination_deg": 43.0042,
      "raan_deg": 0.0491,
      "arg_perigee_deg": 268.9696,
      "mean_anomaly_deg": 91.0958,
      "mean_motion_rev_day": 15.26756344
    },
    {
      "epoch": "2026-03-29T03:22:27.672384Z",
      "apogee_km": 485.40440151732855,
      "perigee_km": 483.3154574519931,
      "latitude_deg": 1.0967085157294162e-05,
      "longitude_deg": 116.6065494511835,
      "height_km": 484.4013681483666,
      "semi_major_axis_km": 6862.4969294846605,
      "eccentricity": 0.0001522,
      "inclination_deg": 43.0065,
      "raan_deg": 353.7728,
      "arg_perigee_deg": 255.3621,
      "mean_anomaly_deg": 104.7062,
      "mean_motion_rev_day": 15.27142337
    },
    {
      "epoch": "2026-03-30T02:55:04.437696Z",
      "apogee_km": 484.8740085501213,
      "perigee_km": 483.02769519269714,
      "latitude_deg": 3.5757967292767026e-05,
      "longitude_deg": 116.94998859050104,
      "height_km": 483.8367583059322,
      "semi_major_axis_km": 6862.087851871409,
      "eccentricity": 0.00013453,
      "inclination_deg": 43.0037,
      "raan_deg": 348.2363,
      "arg_perigee_deg": 263.2294,
      "mean_anomaly_deg": 96.8405,
      "mean_motion_rev_day": 15.27278898
    },
    {
      "epoch": "2026-03-30T23:19:14.632896Z",
      "apogee_km": 484.33696430643886,
      "perigee_km": 482.2401126618779,
      "latitude_deg": -1.8874992482423603e-05,
      "longitude_deg": 165.2718367808338,
      "height_km": 482.77605460224294,
      "semi_major_axis_km": 6861.425538484158,
      "eccentricity": 0.0001528,
      "inclination_deg": 43.003,
      "raan_deg": 343.4386,
      "arg_perigee_deg": 286.0365,
      "mean_anomaly_deg": 74.0318,
      "mean_motion_rev_day": 15.27500039
    },
    {
      "epoch": "2026-03-30T23:19:14.633760Z",
      "apogee_km": 484.3368270779283,
      "perigee_km": 482.24024989038935,
      "latitude_deg": -2.0386867284419843e-05,
      "longitude_deg": 165.27183155881642,
      "height_km": 482.77609250623925,
      "semi_major_axis_km": 6861.425538484158,
      "eccentricity": 0.00015278,
      "inclination_deg": 43.003,
      "raan_deg": 343.4386,
      "arg_perigee_deg": 286.0365,
      "mean_anomaly_deg": 74.0318,
      "mean_motion_rev_day": 15.27500039
    },
    {
      "epoch": "2026-04-01T20:00:01.999008Z",
      "apogee_km": 484.2687786931392,
      "perigee_km": 481.79875721667486,
      "latitude_deg": 6.8804103626209665,
      "longitude_deg": 15.335832347859448,
      "height_km": 482.2882940040819,
      "semi_major_axis_km": 6861.170767954906,
      "eccentricity": 0.00018,
      "inclination_deg": 43.0031,
      "raan_deg": 332.9276,
      "arg_perigee_deg": 264.9777,
      "mean_anomaly_deg": 264.9027,
      "mean_motion_rev_day": 15.27585119
    },
    {
      "epoch": "2026-04-02T15:39:37.934496Z",
      "apogee_km": 484.47878156966453,
      "perigee_km": 481.78614498149636,
      "latitude_deg": -1.0087924890158023e-05,
      "longitude_deg": -97.60848266416922,
      "height_km": 482.98199597988366,
      "semi_major_axis_km": 6861.26946327558,
      "eccentricity": 0.00019622,
      "inclination_deg": 43.005,
      "raan_deg": 328.2977,
      "arg_perigee_deg": 266.9413,
      "mean_anomaly_deg": 93.1214,
      "mean_motion_rev_day": 15.27552159
    }
  ]
}